ONEWEB-0414             
1 50491U 21132Y   25231.94070788  .00000040  00000+0  68688-4 0  9997
2 50491  87.9141  35.2601 0002040  92.1982 267.9384 13.18685560181928
ONEWEB-0417             
1 50492U 21132Z   25231.94895863  .00000067  00000+0  13653-3 0  9997
2 50492  87.9146  35.2905 0001816  99.8187 260.3150 13.18686260181906
ONEWEB-0418             
1 50493U 21132AA  25231.88286403 -.00001619  00000+0 -41402-2 0  9993
2 50493  87.9128  35.2903 0002487 114.4696 245.6695 13.18665068181957
ONEWEB-0419             
1 50494U 21132AB  25231.90110024  .00000030  00000+0  43069-4 0  9999
2 50494  87.9141  35.2876 0001613 102.6749 257.4564 13.18688048181870
ONEWEB-0420             
1 50495U 21132AC  25231.94235405  .00000020  00000+0  18441-4 0  9990
2 50495  87.9143  35.2895 0001748  81.4709 278.6621 13.18686016181875
ONEWEB-0421             
1 50496U 21132AD  25231.93576210  .00000041  00000+0  70723-4 0  9996
2 50496  87.9141  35.2840 0002116  91.2005 268.9370 13.18685632181913
ONEWEB-0424             
1 50497U 21132AE  25231.89615068  .00000023  00000+0  24935-4 0  9991
2 50497  87.9145  35.2862 0001430 101.5326 258.5967 13.18687646181937
ONEWEB-0426             
1 50498U 21132AF  25231.93245882  .00000096  00000+0  21127-3 0  9999
2 50498  87.9142  35.2718 0002472 100.7829 259.3581 13.18685949181880
